"Nereid:Neptune II" "Sol/Neptune"
{
	Class	"minormoon"
	Mesh	"roughsphere.cms"
	Texture	"asteroid.*"
	Color	[ 0.592 0.57 0.551 ]
	BlendTexture	true
	SemiAxes	[ 199 168 153 ]
	Mass	0.0000050234
	OrbitFrame
	{
		EclipticJ2000	{ Center "Sol/Neptune" }
	}
	EllipticalOrbit
	{
		Epoch	2447763.5  # 1989 Aug 25
		Period	359.396374
		SemiMajorAxis	5506217.008
		Eccentricity	0.753882
		Inclination	5.055101
		AscendingNode	319.892917
		ArgOfPericenter	296.451886
		MeanAnomaly	36.055860
	}
	UniformRotation
	{
		Period	11.594
	}
	LunarLambert	0.5
	GeomAlbedo	0.155
	InfoURL	"https://en.wikipedia.org/wiki/Nereid_(moon)"
}
